{
"type": "FeatureCollection",
"name": "Parasolfunde",
"crs": { "type": "name", "properties": { "name": "urn:ogc:def:crs:OGC:1.3:CRS84" } },
"features": [
{ "type": "Feature", "properties": { "species": "Macrolepiota procera", "taxon_id": 63401, "latitude": 52.652648, "longitude": 13.6397555, "date": "2024-11-26", "year": 2024, "month": 11 }, "geometry": { "type": "Point", "coordinates": [ 13.6397555, 52.652648 ] } },
{ "type": "Feature", "properties": { "species": "Macrolepiota procera", "taxon_id": 63401, "latitude": 52.41450914, "longitude": 13.00012466, "date": "2024-11-21", "year": 2024, "month": 11 }, "geometry": { "type": "Point", "coordinates": [ 13.00012466, 52.41450914 ] } },
{ "type": "Feature", "properties": { "species": "Macrolepiota procera", "taxon_id": 63401, "latitude": 52.307811823400002, "longitude": 12.741088856899999, "date": "2024-11-18", "year": 2024, "month": 11 }, "geometry": { "type": "Point", "coordinates": [ 12.741088856899999, 52.307811823400002 ] } },
{ "type": "Feature", "properties": { "species": "Macrolepiota procera", "taxon_id": 63401, "latitude": 52.594716666700002, "longitude": 13.908015, "date": "2024-11-16", "year": 2024, "month": 11 }, "geometry": { "type": "Point", "coordinates": [ 13.908015, 52.594716666700002 ] } },
{ "type": "Feature", "properties": { "species": "Macrolepiota procera", "taxon_id": 63401, "latitude": 52.6510343, "longitude": 13.377671, "date": "2024-11-10", "year": 2024, "month": 11 }, "geometry": { "type": "Point", "coordinates": [ 13.377671, 52.6510343 ] } },
{ "type": "Feature", "properties": { "species": "Macrolepiota procera", "taxon_id": 63401, "latitude": 52.1344904782, "longitude": 13.570020335800001, "date": "2024-11-09", "year": 2024, "month": 11 }, "geometry": { "type": "Point", "coordinates": [ 13.570020335800001, 52.1344904782 ] } },
{ "type": "Feature", "properties": { "species": "Macrolepiota procera", "taxon_id": 63401, "latitude": 52.134499708200003, "longitude": 13.5710321367, "date": "2024-11-09", "year": 2024, "month": 11 }, "geometry": { "type": "Point", "coordinates": [ 13.5710321367, 52.134499708200003 ] } },
{ "type": "Feature", "properties": { "species": "Macrolepiota procera", "taxon_id": 63401, "latitude": 52.4206866667, "longitude": 13.270625, "date": "2024-11-09", "year": 2024, "month": 11 }, "geometry": { "type": "Point", "coordinates": [ 13.270625, 52.4206866667 ] } },
{ "type": "Feature", "properties": { "species": "Macrolepiota procera", "taxon_id": 63401, "latitude": 52.484139213100001, "longitude": 13.239033638, "date": "2024-11-03", "year": 2024, "month": 11 }, "geometry": { "type": "Point", "coordinates": [ 13.239033638, 52.484139213100001 ] } },
{ "type": "Feature", "properties": { "species": "Macrolepiota procera", "taxon_id": 63401, "latitude": 52.4444196, "longitude": 13.6187689, "date": "2024-10-30", "year": 2024, "month": 10 }, "geometry": { "type": "Point", "coordinates": [ 13.6187689, 52.4444196 ] } },
{ "type": "Feature", "properties": { "species": "Macrolepiota procera", "taxon_id": 63401, "latitude": 52.5624275208, "longitude": 13.1461734772, "date": "2024-10-26", "year": 2024, "month": 10 }, "geometry": { "type": "Point", "coordinates": [ 13.1461734772, 52.5624275208 ] } },
{ "type": "Feature", "properties": { "species": "Macrolepiota procera", "taxon_id": 63401, "latitude": 52.9738661321, "longitude": 13.008946655300001, "date": "2024-10-24", "year": 2024, "month": 10 }, "geometry": { "type": "Point", "coordinates": [ 13.008946655300001, 52.9738661321 ] } },
{ "type": "Feature", "properties": { "species": "Macrolepiota procera", "taxon_id": 63401, "latitude": 52.992225, "longitude": 13.85077, "date": "2024-10-19", "year": 2024, "month": 10 }, "geometry": { "type": "Point", "coordinates": [ 13.85077, 52.992225 ] } },
{ "type": "Feature", "properties": { "species": "Macrolepiota procera", "taxon_id": 63401, "latitude": 52.427729783700002, "longitude": 13.079727350800001, "date": "2024-10-16", "year": 2024, "month": 10 }, "geometry": { "type": "Point", "coordinates": [ 13.079727350800001, 52.427729783700002 ] } },
{ "type": "Feature", "properties": { "species": "Macrolepiota procera", "taxon_id": 63401, "latitude": 52.453133789500001, "longitude": 13.436426963700001, "date": "2024-10-15", "year": 2024, "month": 10 }, "geometry": { "type": "Point", "coordinates": [ 13.436426963700001, 52.453133789500001 ] } },
{ "type": "Feature", "properties": { "species": "Macrolepiota procera", "taxon_id": 63401, "latitude": 52.023395538300001, "longitude": 13.8909902573, "date": "2024-10-12", "year": 2024, "month": 10 }, "geometry": { "type": "Point", "coordinates": [ 13.8909902573, 52.023395538300001 ] } },
{ "type": "Feature", "properties": { "species": "Macrolepiota procera", "taxon_id": 63401, "latitude": 52.023345947300001, "longitude": 13.890064239499999, "date": "2024-10-12", "year": 2024, "month": 10 }, "geometry": { "type": "Point", "coordinates": [ 13.890064239499999, 52.023345947300001 ] } },
{ "type": "Feature", "properties": { "species": "Macrolepiota procera", "taxon_id": 63401, "latitude": 52.445215308400002, "longitude": 13.6893626382, "date": "2024-10-12", "year": 2024, "month": 10 }, "geometry": { "type": "Point", "coordinates": [ 13.6893626382, 52.445215308400002 ] } },
{ "type": "Feature", "properties": { "species": "Macrolepiota procera", "taxon_id": 63401, "latitude": 52.801597950199998, "longitude": 13.098014173699999, "date": "2024-10-11", "year": 2024, "month": 10 }, "geometry": { "type": "Point", "coordinates": [ 13.098014173699999, 52.801597950199998 ] } },
{ "type": "Feature", "properties": { "species": "Macrolepiota procera", "taxon_id": 63401, "latitude": 52.600128166700003, "longitude": 13.1659478889, "date": "2024-10-10", "year": 2024, "month": 10 }, "geometry": { "type": "Point", "coordinates": [ 13.1659478889, 52.600128166700003 ] } },
{ "type": "Feature", "properties": { "species": "Macrolepiota procera", "taxon_id": 63401, "latitude": 52.210533333299999, "longitude": 12.719371666700001, "date": "2024-10-10", "year": 2024, "month": 10 }, "geometry": { "type": "Point", "coordinates": [ 12.719371666700001, 52.210533333299999 ] } },
{ "type": "Feature", "properties": { "species": "Macrolepiota procera", "taxon_id": 63401, "latitude": 52.525061310600002, "longitude": 13.006796663899999, "date": "2024-10-09", "year": 2024, "month": 10 }, "geometry": { "type": "Point", "coordinates": [ 13.006796663899999, 52.525061310600002 ] } },
{ "type": "Feature", "properties": { "species": "Macrolepiota procera", "taxon_id": 63401, "latitude": 52.103641864799997, "longitude": 14.072256428799999, "date": "2024-10-07", "year": 2024, "month": 10 }, "geometry": { "type": "Point", "coordinates": [ 14.072256428799999, 52.103641864799997 ] } },
{ "type": "Feature", "properties": { "species": "Macrolepiota procera", "taxon_id": 63401, "latitude": 52.468825972200001, "longitude": 13.059711972200001, "date": "2024-10-06", "year": 2024, "month": 10 }, "geometry": { "type": "Point", "coordinates": [ 13.059711972200001, 52.468825972200001 ] } },
{ "type": "Feature", "properties": { "species": "Macrolepiota procera", "taxon_id": 63401, "latitude": 52.803713333300003, "longitude": 13.0403416667, "date": "2024-10-05", "year": 2024, "month": 10 }, "geometry": { "type": "Point", "coordinates": [ 13.0403416667, 52.803713333300003 ] } },
{ "type": "Feature", "properties": { "species": "Macrolepiota procera", "taxon_id": 63401, "latitude": 52.3006116667, "longitude": 13.7324183333, "date": "2024-10-05", "year": 2024, "month": 10 }, "geometry": { "type": "Point", "coordinates": [ 13.7324183333, 52.3006116667 ] } },
{ "type": "Feature", "properties": { "species": "Macrolepiota procera", "taxon_id": 63401, "latitude": 52.460685699700001, "longitude": 13.964003699699999, "date": "2024-10-03", "year": 2024, "month": 10 }, "geometry": { "type": "Point", "coordinates": [ 13.964003699699999, 52.460685699700001 ] } },
{ "type": "Feature", "properties": { "species": "Macrolepiota procera", "taxon_id": 63401, "latitude": 52.568118333299999, "longitude": 13.863345, "date": "2024-10-02", "year": 2024, "month": 10 }, "geometry": { "type": "Point", "coordinates": [ 13.863345, 52.568118333299999 ] } },
{ "type": "Feature", "properties": { "species": "Macrolepiota procera", "taxon_id": 63401, "latitude": 52.7815114677, "longitude": 13.764681401200001, "date": "2024-09-30", "year": 2024, "month": 9 }, "geometry": { "type": "Point", "coordinates": [ 13.764681401200001, 52.7815114677 ] } },
{ "type": "Feature", "properties": { "species": "Macrolepiota procera", "taxon_id": 63401, "latitude": 52.4152777778, "longitude": 13.7735722222, "date": "2024-09-29", "year": 2024, "month": 9 }, "geometry": { "type": "Point", "coordinates": [ 13.7735722222, 52.4152777778 ] } },
{ "type": "Feature", "properties": { "species": "Macrolepiota procera", "taxon_id": 63401, "latitude": 52.240626666700003, "longitude": 13.172255, "date": "2024-09-28", "year": 2024, "month": 9 }, "geometry": { "type": "Point", "coordinates": [ 13.172255, 52.240626666700003 ] } },
{ "type": "Feature", "properties": { "species": "Macrolepiota procera", "taxon_id": 63401, "latitude": 52.520596666700001, "longitude": 13.141648333299999, "date": "2024-09-28", "year": 2024, "month": 9 }, "geometry": { "type": "Point", "coordinates": [ 13.141648333299999, 52.520596666700001 ] } },
{ "type": "Feature", "properties": { "species": "Macrolepiota procera", "taxon_id": 63401, "latitude": 52.651435851899997, "longitude": 13.5063323972, "date": "2024-09-27", "year": 2024, "month": 9 }, "geometry": { "type": "Point", "coordinates": [ 13.5063323972, 52.651435851899997 ] } },
{ "type": "Feature", "properties": { "species": "Macrolepiota procera", "taxon_id": 63401, "latitude": 52.451073333300002, "longitude": 13.7704283333, "date": "2024-09-27", "year": 2024, "month": 9 }, "geometry": { "type": "Point", "coordinates": [ 13.7704283333, 52.451073333300002 ] } },
{ "type": "Feature", "properties": { "species": "Macrolepiota procera", "taxon_id": 63401, "latitude": 52.521181666700002, "longitude": 13.1418, "date": "2024-09-26", "year": 2024, "month": 9 }, "geometry": { "type": "Point", "coordinates": [ 13.1418, 52.521181666700002 ] } },
{ "type": "Feature", "properties": { "species": "Macrolepiota procera", "taxon_id": 63401, "latitude": 52.3744349722, "longitude": 12.979283972199999, "date": "2024-09-25", "year": 2024, "month": 9 }, "geometry": { "type": "Point", "coordinates": [ 12.979283972199999, 52.3744349722 ] } },
{ "type": "Feature", "properties": { "species": "Macrolepiota procera", "taxon_id": 63401, "latitude": 52.288297972199999, "longitude": 13.791033972199999, "date": "2024-09-25", "year": 2024, "month": 9 }, "geometry": { "type": "Point", "coordinates": [ 13.791033972199999, 52.288297972199999 ] } },
{ "type": "Feature", "properties": { "species": "Macrolepiota procera", "taxon_id": 63401, "latitude": 52.754086666699997, "longitude": 13.6237716667, "date": "2024-09-22", "year": 2024, "month": 9 }, "geometry": { "type": "Point", "coordinates": [ 13.6237716667, 52.754086666699997 ] } },
{ "type": "Feature", "properties": { "species": "Macrolepiota procera", "taxon_id": 63401, "latitude": 52.516503336699998, "longitude": 13.0093336844, "date": "2024-09-22", "year": 2024, "month": 9 }, "geometry": { "type": "Point", "coordinates": [ 13.0093336844, 52.516503336699998 ] } },
{ "type": "Feature", "properties": { "species": "Macrolepiota procera", "taxon_id": 63401, "latitude": 52.799425336799999, "longitude": 13.1665395945, "date": "2024-09-22", "year": 2024, "month": 9 }, "geometry": { "type": "Point", "coordinates": [ 13.1665395945, 52.799425336799999 ] } },
{ "type": "Feature", "properties": { "species": "Macrolepiota procera", "taxon_id": 63401, "latitude": 52.504516666699999, "longitude": 13.01470555, "date": "2024-09-21", "year": 2024, "month": 9 }, "geometry": { "type": "Point", "coordinates": [ 13.01470555, 52.504516666699999 ] } },
{ "type": "Feature", "properties": { "species": "Macrolepiota procera", "taxon_id": 63401, "latitude": 52.427139269400001, "longitude": 13.735259038900001, "date": "2024-09-21", "year": 2024, "month": 9 }, "geometry": { "type": "Point", "coordinates": [ 13.735259038900001, 52.427139269400001 ] } },
{ "type": "Feature", "properties": { "species": "Macrolepiota procera", "taxon_id": 63401, "latitude": 52.6559866, "longitude": 13.6082808, "date": "2024-09-21", "year": 2024, "month": 9 }, "geometry": { "type": "Point", "coordinates": [ 13.6082808, 52.6559866 ] } },
{ "type": "Feature", "properties": { "species": "Macrolepiota procera", "taxon_id": 63401, "latitude": 52.815938683299997, "longitude": 13.038702218099999, "date": "2024-08-21", "year": 2024, "month": 8 }, "geometry": { "type": "Point", "coordinates": [ 13.038702218099999, 52.815938683299997 ] } },
{ "type": "Feature", "properties": { "species": "Macrolepiota procera", "taxon_id": 63401, "latitude": 52.5302386, "longitude": 13.8859599, "date": "2024-08-07", "year": 2024, "month": 8 }, "geometry": { "type": "Point", "coordinates": [ 13.8859599, 52.5302386 ] } },
{ "type": "Feature", "properties": { "species": "Macrolepiota procera", "taxon_id": 63401, "latitude": 52.577552106200002, "longitude": 13.381823916, "date": "2024-08-05", "year": 2024, "month": 8 }, "geometry": { "type": "Point", "coordinates": [ 13.381823916, 52.577552106200002 ] } },
{ "type": "Feature", "properties": { "species": "Macrolepiota procera", "taxon_id": 63401, "latitude": 52.804221666700002, "longitude": 13.040047166700001, "date": "2024-07-07", "year": 2024, "month": 7 }, "geometry": { "type": "Point", "coordinates": [ 13.040047166700001, 52.804221666700002 ] } },
{ "type": "Feature", "properties": { "species": "Macrolepiota procera", "taxon_id": 63401, "latitude": 52.515391666699998, "longitude": 13.220615, "date": "2024-07-01", "year": 2024, "month": 7 }, "geometry": { "type": "Point", "coordinates": [ 13.220615, 52.515391666699998 ] } },
{ "type": "Feature", "properties": { "species": "Macrolepiota procera", "taxon_id": 63401, "latitude": 52.2929972, "longitude": 12.9838412997, "date": "2024-06-26", "year": 2024, "month": 6 }, "geometry": { "type": "Point", "coordinates": [ 12.9838412997, 52.2929972 ] } },
{ "type": "Feature", "properties": { "species": "Macrolepiota procera", "taxon_id": 63401, "latitude": 52.293025446100003, "longitude": 12.983819931799999, "date": "2024-06-26", "year": 2024, "month": 6 }, "geometry": { "type": "Point", "coordinates": [ 12.983819931799999, 52.293025446100003 ] } },
{ "type": "Feature", "properties": { "species": "Macrolepiota procera", "taxon_id": 63401, "latitude": 52.253472064599997, "longitude": 14.210592722499999, "date": "2024-06-26", "year": 2024, "month": 6 }, "geometry": { "type": "Point", "coordinates": [ 14.210592722499999, 52.253472064599997 ] } },
{ "type": "Feature", "properties": { "species": "Macrolepiota procera", "taxon_id": 63401, "latitude": 52.4569572, "longitude": 13.6242345, "date": "2024-06-23", "year": 2024, "month": 6 }, "geometry": { "type": "Point", "coordinates": [ 13.6242345, 52.4569572 ] } },
{ "type": "Feature", "properties": { "species": "Macrolepiota procera", "taxon_id": 63401, "latitude": 52.65150477, "longitude": 13.62685158, "date": "2024-06-22", "year": 2024, "month": 6 }, "geometry": { "type": "Point", "coordinates": [ 13.62685158, 52.65150477 ] } },
{ "type": "Feature", "properties": { "species": "Macrolepiota procera", "taxon_id": 63401, "latitude": 52.418885, "longitude": 13.17996, "date": "2024-06-19", "year": 2024, "month": 6 }, "geometry": { "type": "Point", "coordinates": [ 13.17996, 52.418885 ] } },
{ "type": "Feature", "properties": { "species": "Macrolepiota procera", "taxon_id": 63401, "latitude": 52.351108, "longitude": 12.914500972200001, "date": "2024-06-18", "year": 2024, "month": 6 }, "geometry": { "type": "Point", "coordinates": [ 12.914500972200001, 52.351108 ] } },
{ "type": "Feature", "properties": { "species": "Macrolepiota procera", "taxon_id": 63401, "latitude": 52.554636444000003, "longitude": 13.977651335299999, "date": "2024-06-08", "year": 2024, "month": 6 }, "geometry": { "type": "Point", "coordinates": [ 13.977651335299999, 52.554636444 ] } },
{ "type": "Feature", "properties": { "species": "Macrolepiota procera", "taxon_id": 63401, "latitude": 52.790074374699998, "longitude": 13.1054118989, "date": "2024-06-05", "year": 2024, "month": 6 }, "geometry": { "type": "Point", "coordinates": [ 13.1054118989, 52.790074374699998 ] } },
{ "type": "Feature", "properties": { "species": "Macrolepiota procera", "taxon_id": 63401, "latitude": 52.3872607, "longitude": 12.954292, "date": "2024-06-03", "year": 2024, "month": 6 }, "geometry": { "type": "Point", "coordinates": [ 12.954292, 52.3872607 ] } },
{ "type": "Feature", "properties": { "species": "Macrolepiota procera", "taxon_id": 63401, "latitude": 52.423980694400001, "longitude": 13.117370555600001, "date": "2024-05-29", "year": 2024, "month": 5 }, "geometry": { "type": "Point", "coordinates": [ 13.117370555600001, 52.423980694400001 ] } },
{ "type": "Feature", "properties": { "species": "Macrolepiota procera", "taxon_id": 63401, "latitude": 52.106597900300002, "longitude": 13.689664840600001, "date": "2023-11-22", "year": 2023, "month": 11 }, "geometry": { "type": "Point", "coordinates": [ 13.689664840600001, 52.106597900300002 ] } },
{ "type": "Feature", "properties": { "species": "Macrolepiota procera", "taxon_id": 63401, "latitude": 52.416052299699999, "longitude": 13.1811676, "date": "2023-11-18", "year": 2023, "month": 11 }, "geometry": { "type": "Point", "coordinates": [ 13.1811676, 52.416052299699999 ] } },
{ "type": "Feature", "properties": { "species": "Macrolepiota procera", "taxon_id": 63401, "latitude": 52.477985154800002, "longitude": 13.239145064700001, "date": "2023-11-13", "year": 2023, "month": 11 }, "geometry": { "type": "Point", "coordinates": [ 13.239145064700001, 52.477985154800002 ] } },
{ "type": "Feature", "properties": { "species": "Macrolepiota procera", "taxon_id": 63401, "latitude": 52.748121962799999, "longitude": 13.4982396662, "date": "2023-11-11", "year": 2023, "month": 11 }, "geometry": { "type": "Point", "coordinates": [ 13.4982396662, 52.748121962799999 ] } },
{ "type": "Feature", "properties": { "species": "Macrolepiota procera", "taxon_id": 63401, "latitude": 52.73389259, "longitude": 13.22625602, "date": "2023-11-06", "year": 2023, "month": 11 }, "geometry": { "type": "Point", "coordinates": [ 13.22625602, 52.73389259 ] } },
{ "type": "Feature", "properties": { "species": "Macrolepiota procera", "taxon_id": 63401, "latitude": 52.86941, "longitude": 13.858871666700001, "date": "2023-11-05", "year": 2023, "month": 11 }, "geometry": { "type": "Point", "coordinates": [ 13.858871666700001, 52.86941 ] } },
{ "type": "Feature", "properties": { "species": "Macrolepiota procera", "taxon_id": 63401, "latitude": 52.529002558999998, "longitude": 13.074082562799999, "date": "2023-10-31", "year": 2023, "month": 10 }, "geometry": { "type": "Point", "coordinates": [ 13.074082562799999, 52.529002559 ] } },
{ "type": "Feature", "properties": { "species": "Macrolepiota procera", "taxon_id": 63401, "latitude": 52.529002558999998, "longitude": 13.074082562799999, "date": "2023-10-31", "year": 2023, "month": 10 }, "geometry": { "type": "Point", "coordinates": [ 13.074082562799999, 52.529002559 ] } },
{ "type": "Feature", "properties": { "species": "Macrolepiota procera", "taxon_id": 63401, "latitude": 52.529002558999998, "longitude": 13.074082562799999, "date": "2023-10-31", "year": 2023, "month": 10 }, "geometry": { "type": "Point", "coordinates": [ 13.074082562799999, 52.529002559 ] } },
{ "type": "Feature", "properties": { "species": "Macrolepiota procera", "taxon_id": 63401, "latitude": 52.529002558999998, "longitude": 13.074082562799999, "date": "2023-10-31", "year": 2023, "month": 10 }, "geometry": { "type": "Point", "coordinates": [ 13.074082562799999, 52.529002559 ] } },
{ "type": "Feature", "properties": { "species": "Macrolepiota procera", "taxon_id": 63401, "latitude": 52.353520938099997, "longitude": 12.9165530338, "date": "2023-10-29", "year": 2023, "month": 10 }, "geometry": { "type": "Point", "coordinates": [ 12.9165530338, 52.353520938099997 ] } },
{ "type": "Feature", "properties": { "species": "Macrolepiota procera", "taxon_id": 63401, "latitude": 52.353520938099997, "longitude": 12.9165530338, "date": "2023-10-29", "year": 2023, "month": 10 }, "geometry": { "type": "Point", "coordinates": [ 12.9165530338, 52.353520938099997 ] } },
{ "type": "Feature", "properties": { "species": "Macrolepiota procera", "taxon_id": 63401, "latitude": 52.804864548399998, "longitude": 13.1281233121, "date": "2023-10-25", "year": 2023, "month": 10 }, "geometry": { "type": "Point", "coordinates": [ 13.1281233121, 52.804864548399998 ] } },
{ "type": "Feature", "properties": { "species": "Macrolepiota procera", "taxon_id": 63401, "latitude": 52.7918863067, "longitude": 13.0992464998, "date": "2023-10-25", "year": 2023, "month": 10 }, "geometry": { "type": "Point", "coordinates": [ 13.0992464998, 52.7918863067 ] } },
{ "type": "Feature", "properties": { "species": "Macrolepiota procera", "taxon_id": 63401, "latitude": 52.787136051600001, "longitude": 13.121178260700001, "date": "2023-10-25", "year": 2023, "month": 10 }, "geometry": { "type": "Point", "coordinates": [ 13.121178260700001, 52.787136051600001 ] } },
{ "type": "Feature", "properties": { "species": "Macrolepiota procera", "taxon_id": 63401, "latitude": 52.314325197499997, "longitude": 13.7555455463, "date": "2023-10-24", "year": 2023, "month": 10 }, "geometry": { "type": "Point", "coordinates": [ 13.7555455463, 52.314325197499997 ] } },
{ "type": "Feature", "properties": { "species": "Macrolepiota procera", "taxon_id": 63401, "latitude": 52.797103030199999, "longitude": 13.124198073200001, "date": "2023-10-23", "year": 2023, "month": 10 }, "geometry": { "type": "Point", "coordinates": [ 13.124198073200001, 52.797103030199999 ] } },
{ "type": "Feature", "properties": { "species": "Macrolepiota procera", "taxon_id": 63401, "latitude": 52.769956666699997, "longitude": 13.9115083333, "date": "2023-10-21", "year": 2023, "month": 10 }, "geometry": { "type": "Point", "coordinates": [ 13.9115083333, 52.769956666699997 ] } },
{ "type": "Feature", "properties": { "species": "Macrolepiota procera", "taxon_id": 63401, "latitude": 52.733430823, "longitude": 13.7936581671, "date": "2023-10-20", "year": 2023, "month": 10 }, "geometry": { "type": "Point", "coordinates": [ 13.7936581671, 52.733430823 ] } },
{ "type": "Feature", "properties": { "species": "Macrolepiota procera", "taxon_id": 63401, "latitude": 52.927766388899997, "longitude": 14.1686030556, "date": "2023-10-18", "year": 2023, "month": 10 }, "geometry": { "type": "Point", "coordinates": [ 14.1686030556, 52.927766388899997 ] } },
{ "type": "Feature", "properties": { "species": "Macrolepiota procera", "taxon_id": 63401, "latitude": 52.65258346, "longitude": 13.62542565, "date": "2023-10-17", "year": 2023, "month": 10 }, "geometry": { "type": "Point", "coordinates": [ 13.62542565, 52.65258346 ] } },
{ "type": "Feature", "properties": { "species": "Macrolepiota procera", "taxon_id": 63401, "latitude": 52.822882827400001, "longitude": 13.109368846900001, "date": "2023-10-17", "year": 2023, "month": 10 }, "geometry": { "type": "Point", "coordinates": [ 13.109368846900001, 52.822882827400001 ] } },
{ "type": "Feature", "properties": { "species": "Macrolepiota procera", "taxon_id": 63401, "latitude": 52.268478025900002, "longitude": 13.7354174665, "date": "2023-10-17", "year": 2023, "month": 10 }, "geometry": { "type": "Point", "coordinates": [ 13.7354174665, 52.268478025900002 ] } },
{ "type": "Feature", "properties": { "species": "Macrolepiota procera", "taxon_id": 63401, "latitude": 52.563801666700002, "longitude": 13.865906666700001, "date": "2023-10-15", "year": 2023, "month": 10 }, "geometry": { "type": "Point", "coordinates": [ 13.865906666700001, 52.563801666700002 ] } },
{ "type": "Feature", "properties": { "species": "Macrolepiota procera", "taxon_id": 63401, "latitude": 52.57692482, "longitude": 14.10926143, "date": "2023-10-14", "year": 2023, "month": 10 }, "geometry": { "type": "Point", "coordinates": [ 14.10926143, 52.57692482 ] } },
{ "type": "Feature", "properties": { "species": "Macrolepiota procera", "taxon_id": 63401, "latitude": 52.785245, "longitude": 13.814616666699999, "date": "2023-10-12", "year": 2023, "month": 10 }, "geometry": { "type": "Point", "coordinates": [ 13.814616666699999, 52.785245 ] } },
{ "type": "Feature", "properties": { "species": "Macrolepiota procera", "taxon_id": 63401, "latitude": 52.65122869, "longitude": 13.62610705, "date": "2023-10-08", "year": 2023, "month": 10 }, "geometry": { "type": "Point", "coordinates": [ 13.62610705, 52.65122869 ] } },
{ "type": "Feature", "properties": { "species": "Macrolepiota procera", "taxon_id": 63401, "latitude": 52.417709045099997, "longitude": 13.774293204799999, "date": "2023-10-06", "year": 2023, "month": 10 }, "geometry": { "type": "Point", "coordinates": [ 13.774293204799999, 52.417709045099997 ] } },
{ "type": "Feature", "properties": { "species": "Macrolepiota procera", "taxon_id": 63401, "latitude": 52.453811746500001, "longitude": 13.060814752200001, "date": "2023-10-06", "year": 2023, "month": 10 }, "geometry": { "type": "Point", "coordinates": [ 13.060814752200001, 52.453811746500001 ] } },
{ "type": "Feature", "properties": { "species": "Macrolepiota procera", "taxon_id": 63401, "latitude": 52.5541273917, "longitude": 13.1842470768, "date": "2023-10-03", "year": 2023, "month": 10 }, "geometry": { "type": "Point", "coordinates": [ 13.1842470768, 52.5541273917 ] } },
{ "type": "Feature", "properties": { "species": "Macrolepiota procera", "taxon_id": 63401, "latitude": 52.787886219699999, "longitude": 13.1285163254, "date": "2023-10-03", "year": 2023, "month": 10 }, "geometry": { "type": "Point", "coordinates": [ 13.1285163254, 52.787886219699999 ] } },
{ "type": "Feature", "properties": { "species": "Macrolepiota procera", "taxon_id": 63401, "latitude": 52.520219494899997, "longitude": 13.6698630473, "date": "2023-09-30", "year": 2023, "month": 9 }, "geometry": { "type": "Point", "coordinates": [ 13.6698630473, 52.520219494899997 ] } },
{ "type": "Feature", "properties": { "species": "Macrolepiota procera", "taxon_id": 63401, "latitude": 52.845720139900003, "longitude": 13.805050849000001, "date": "2023-09-28", "year": 2023, "month": 9 }, "geometry": { "type": "Point", "coordinates": [ 13.805050849, 52.845720139900003 ] } },
{ "type": "Feature", "properties": { "species": "Macrolepiota procera", "taxon_id": 63401, "latitude": 52.233452349899999, "longitude": 13.96546782, "date": "2023-09-23", "year": 2023, "month": 9 }, "geometry": { "type": "Point", "coordinates": [ 13.96546782, 52.233452349899999 ] } },
{ "type": "Feature", "properties": { "species": "Macrolepiota procera", "taxon_id": 63401, "latitude": 52.772672525700003, "longitude": 13.520570062099999, "date": "2023-09-12", "year": 2023, "month": 9 }, "geometry": { "type": "Point", "coordinates": [ 13.520570062099999, 52.772672525700003 ] } },
{ "type": "Feature", "properties": { "species": "Macrolepiota procera", "taxon_id": 63401, "latitude": 52.777339168799998, "longitude": 13.5176189616, "date": "2023-09-09", "year": 2023, "month": 9 }, "geometry": { "type": "Point", "coordinates": [ 13.5176189616, 52.777339168799998 ] } },
{ "type": "Feature", "properties": { "species": "Macrolepiota procera", "taxon_id": 63401, "latitude": 52.576991666700003, "longitude": 14.109125, "date": "2023-09-08", "year": 2023, "month": 9 }, "geometry": { "type": "Point", "coordinates": [ 14.109125, 52.576991666700003 ] } },
{ "type": "Feature", "properties": { "species": "Macrolepiota procera", "taxon_id": 63401, "latitude": 52.54122, "longitude": 13.813578333300001, "date": "2023-08-27", "year": 2023, "month": 8 }, "geometry": { "type": "Point", "coordinates": [ 13.813578333300001, 52.54122 ] } },
{ "type": "Feature", "properties": { "species": "Macrolepiota procera", "taxon_id": 63401, "latitude": 52.469708821700003, "longitude": 13.543458273600001, "date": "2023-08-22", "year": 2023, "month": 8 }, "geometry": { "type": "Point", "coordinates": [ 13.543458273600001, 52.469708821700003 ] } },
{ "type": "Feature", "properties": { "species": "Macrolepiota procera", "taxon_id": 63401, "latitude": 52.594688333299999, "longitude": 13.21097, "date": "2023-08-17", "year": 2023, "month": 8 }, "geometry": { "type": "Point", "coordinates": [ 13.21097, 52.594688333299999 ] } },
{ "type": "Feature", "properties": { "species": "Macrolepiota procera", "taxon_id": 63401, "latitude": 52.564028333300001, "longitude": 13.25102, "date": "2023-08-14", "year": 2023, "month": 8 }, "geometry": { "type": "Point", "coordinates": [ 13.25102, 52.564028333300001 ] } },
{ "type": "Feature", "properties": { "species": "Macrolepiota procera", "taxon_id": 63401, "latitude": 52.398005, "longitude": 13.126925, "date": "2023-08-13", "year": 2023, "month": 8 }, "geometry": { "type": "Point", "coordinates": [ 13.126925, 52.398005 ] } },
{ "type": "Feature", "properties": { "species": "Macrolepiota procera", "taxon_id": 63401, "latitude": 52.452306666699997, "longitude": 13.774276666700001, "date": "2023-08-13", "year": 2023, "month": 8 }, "geometry": { "type": "Point", "coordinates": [ 13.774276666700001, 52.452306666699997 ] } },
{ "type": "Feature", "properties": { "species": "Macrolepiota procera", "taxon_id": 63401, "latitude": 52.661263333299999, "longitude": 13.786755, "date": "2023-08-12", "year": 2023, "month": 8 }, "geometry": { "type": "Point", "coordinates": [ 13.786755, 52.661263333299999 ] } },
{ "type": "Feature", "properties": { "species": "Macrolepiota procera", "taxon_id": 63401, "latitude": 52.782222222199998, "longitude": 13.1063888889, "date": "2023-08-10", "year": 2023, "month": 8 }, "geometry": { "type": "Point", "coordinates": [ 13.1063888889, 52.782222222199998 ] } },
{ "type": "Feature", "properties": { "species": "Macrolepiota procera", "taxon_id": 63401, "latitude": 52.47918932, "longitude": 14.11458969, "date": "2023-08-06", "year": 2023, "month": 8 }, "geometry": { "type": "Point", "coordinates": [ 14.11458969, 52.47918932 ] } },
{ "type": "Feature", "properties": { "species": "Macrolepiota procera", "taxon_id": 63401, "latitude": 52.803755, "longitude": 13.769395, "date": "2023-08-06", "year": 2023, "month": 8 }, "geometry": { "type": "Point", "coordinates": [ 13.769395, 52.803755 ] } },
{ "type": "Feature", "properties": { "species": "Macrolepiota procera", "taxon_id": 63401, "latitude": 52.413277409800003, "longitude": 13.8513514772, "date": "2023-08-05", "year": 2023, "month": 8 }, "geometry": { "type": "Point", "coordinates": [ 13.8513514772, 52.413277409800003 ] } },
{ "type": "Feature", "properties": { "species": "Macrolepiota procera", "taxon_id": 63401, "latitude": 52.427267116599999, "longitude": 13.6179621904, "date": "2023-08-05", "year": 2023, "month": 8 }, "geometry": { "type": "Point", "coordinates": [ 13.6179621904, 52.427267116599999 ] } },
{ "type": "Feature", "properties": { "species": "Macrolepiota procera", "taxon_id": 63401, "latitude": 52.6481216667, "longitude": 13.905466666700001, "date": "2023-08-05", "year": 2023, "month": 8 }, "geometry": { "type": "Point", "coordinates": [ 13.905466666700001, 52.6481216667 ] } },
{ "type": "Feature", "properties": { "species": "Macrolepiota procera", "taxon_id": 63401, "latitude": 52.929927959300002, "longitude": 13.8695609086, "date": "2023-08-04", "year": 2023, "month": 8 }, "geometry": { "type": "Point", "coordinates": [ 13.8695609086, 52.929927959300002 ] } },
{ "type": "Feature", "properties": { "species": "Macrolepiota procera", "taxon_id": 63401, "latitude": 52.575738333300002, "longitude": 13.0104116667, "date": "2023-07-29", "year": 2023, "month": 7 }, "geometry": { "type": "Point", "coordinates": [ 13.0104116667, 52.575738333300002 ] } },
{ "type": "Feature", "properties": { "species": "Macrolepiota procera", "taxon_id": 63401, "latitude": 52.552551666699998, "longitude": 13.882495, "date": "2023-07-22", "year": 2023, "month": 7 }, "geometry": { "type": "Point", "coordinates": [ 13.882495, 52.552551666699998 ] } },
{ "type": "Feature", "properties": { "species": "Macrolepiota procera", "taxon_id": 63401, "latitude": 52.550171152700003, "longitude": 13.8811142743, "date": "2023-07-22", "year": 2023, "month": 7 }, "geometry": { "type": "Point", "coordinates": [ 13.8811142743, 52.550171152700003 ] } },
{ "type": "Feature", "properties": { "species": "Macrolepiota procera", "taxon_id": 63401, "latitude": 52.486695799700001, "longitude": 13.596816, "date": "2023-07-13", "year": 2023, "month": 7 }, "geometry": { "type": "Point", "coordinates": [ 13.596816, 52.486695799700001 ] } },
{ "type": "Feature", "properties": { "species": "Macrolepiota procera", "taxon_id": 63401, "latitude": 52.5875382997, "longitude": 13.1571583, "date": "2023-07-10", "year": 2023, "month": 7 }, "geometry": { "type": "Point", "coordinates": [ 13.1571583, 52.5875382997 ] } },
{ "type": "Feature", "properties": { "species": "Macrolepiota procera", "taxon_id": 63401, "latitude": 52.598751055599998, "longitude": 13.1831121389, "date": "2023-07-07", "year": 2023, "month": 7 }, "geometry": { "type": "Point", "coordinates": [ 13.1831121389, 52.598751055599998 ] } },
{ "type": "Feature", "properties": { "species": "Macrolepiota procera", "taxon_id": 63401, "latitude": 52.6004, "longitude": 13.1668415997, "date": "2023-07-07", "year": 2023, "month": 7 }, "geometry": { "type": "Point", "coordinates": [ 13.1668415997, 52.6004 ] } },
{ "type": "Feature", "properties": { "species": "Macrolepiota procera", "taxon_id": 63401, "latitude": 52.416198333300002, "longitude": 13.622006666700001, "date": "2023-07-01", "year": 2023, "month": 7 }, "geometry": { "type": "Point", "coordinates": [ 13.622006666700001, 52.416198333300002 ] } },
{ "type": "Feature", "properties": { "species": "Macrolepiota procera", "taxon_id": 63401, "latitude": 52.4090671, "longitude": 13.6043885, "date": "2023-07-01", "year": 2023, "month": 7 }, "geometry": { "type": "Point", "coordinates": [ 13.6043885, 52.4090671 ] } },
{ "type": "Feature", "properties": { "species": "Macrolepiota procera", "taxon_id": 63401, "latitude": 52.545463301799998, "longitude": 13.8736530158, "date": "2023-06-09", "year": 2023, "month": 6 }, "geometry": { "type": "Point", "coordinates": [ 13.8736530158, 52.545463301799998 ] } },
{ "type": "Feature", "properties": { "species": "Macrolepiota procera", "taxon_id": 63401, "latitude": 52.516609963500002, "longitude": 13.130185683100001, "date": "2022-11-12", "year": 2022, "month": 11 }, "geometry": { "type": "Point", "coordinates": [ 13.130185683100001, 52.516609963500002 ] } },
{ "type": "Feature", "properties": { "species": "Macrolepiota procera", "taxon_id": 63401, "latitude": 52.447613333299998, "longitude": 13.670925, "date": "2022-11-06", "year": 2022, "month": 11 }, "geometry": { "type": "Point", "coordinates": [ 13.670925, 52.447613333299998 ] } },
{ "type": "Feature", "properties": { "species": "Macrolepiota procera", "taxon_id": 63401, "latitude": 52.491113907299997, "longitude": 13.221465868, "date": "2022-10-23", "year": 2022, "month": 10 }, "geometry": { "type": "Point", "coordinates": [ 13.221465868, 52.491113907299997 ] } },
{ "type": "Feature", "properties": { "species": "Macrolepiota procera", "taxon_id": 63401, "latitude": 52.485546666700003, "longitude": 13.25342, "date": "2022-10-23", "year": 2022, "month": 10 }, "geometry": { "type": "Point", "coordinates": [ 13.25342, 52.485546666700003 ] } },
{ "type": "Feature", "properties": { "species": "Macrolepiota procera", "taxon_id": 63401, "latitude": 52.4855852, "longitude": 13.253374, "date": "2022-10-23", "year": 2022, "month": 10 }, "geometry": { "type": "Point", "coordinates": [ 13.253374, 52.4855852 ] } },
{ "type": "Feature", "properties": { "species": "Macrolepiota procera", "taxon_id": 63401, "latitude": 52.4883121262, "longitude": 13.257763263199999, "date": "2022-10-23", "year": 2022, "month": 10 }, "geometry": { "type": "Point", "coordinates": [ 13.257763263199999, 52.4883121262 ] } },
{ "type": "Feature", "properties": { "species": "Macrolepiota procera", "taxon_id": 63401, "latitude": 52.939910888699998, "longitude": 13.077712059, "date": "2022-10-22", "year": 2022, "month": 10 }, "geometry": { "type": "Point", "coordinates": [ 13.077712059, 52.939910888699998 ] } },
{ "type": "Feature", "properties": { "species": "Macrolepiota procera", "taxon_id": 63401, "latitude": 52.9843529722, "longitude": 12.992153, "date": "2022-10-21", "year": 2022, "month": 10 }, "geometry": { "type": "Point", "coordinates": [ 12.992153, 52.9843529722 ] } },
{ "type": "Feature", "properties": { "species": "Macrolepiota procera", "taxon_id": 63401, "latitude": 52.46637075, "longitude": 13.26878231, "date": "2022-10-17", "year": 2022, "month": 10 }, "geometry": { "type": "Point", "coordinates": [ 13.26878231, 52.46637075 ] } },
{ "type": "Feature", "properties": { "species": "Macrolepiota procera", "taxon_id": 63401, "latitude": 52.446900804000002, "longitude": 13.215173721399999, "date": "2022-10-14", "year": 2022, "month": 10 }, "geometry": { "type": "Point", "coordinates": [ 13.215173721399999, 52.446900804 ] } },
{ "type": "Feature", "properties": { "species": "Macrolepiota procera", "taxon_id": 63401, "latitude": 52.447548163, "longitude": 13.239847179, "date": "2022-10-13", "year": 2022, "month": 10 }, "geometry": { "type": "Point", "coordinates": [ 13.239847179, 52.447548163 ] } },
{ "type": "Feature", "properties": { "species": "Macrolepiota procera", "taxon_id": 63401, "latitude": 52.4193033333, "longitude": 13.271116666699999, "date": "2022-10-12", "year": 2022, "month": 10 }, "geometry": { "type": "Point", "coordinates": [ 13.271116666699999, 52.4193033333 ] } },
{ "type": "Feature", "properties": { "species": "Macrolepiota procera", "taxon_id": 63401, "latitude": 52.52361, "longitude": 13.08068, "date": "2022-10-09", "year": 2022, "month": 10 }, "geometry": { "type": "Point", "coordinates": [ 13.08068, 52.52361 ] } },
{ "type": "Feature", "properties": { "species": "Macrolepiota procera", "taxon_id": 63401, "latitude": 52.523553333300001, "longitude": 13.080445, "date": "2022-10-09", "year": 2022, "month": 10 }, "geometry": { "type": "Point", "coordinates": [ 13.080445, 52.523553333300001 ] } },
{ "type": "Feature", "properties": { "species": "Macrolepiota procera", "taxon_id": 63401, "latitude": 52.523543333299997, "longitude": 13.0802633333, "date": "2022-10-09", "year": 2022, "month": 10 }, "geometry": { "type": "Point", "coordinates": [ 13.0802633333, 52.523543333299997 ] } },
{ "type": "Feature", "properties": { "species": "Macrolepiota procera", "taxon_id": 63401, "latitude": 52.480016621799997, "longitude": 13.221283724599999, "date": "2022-10-09", "year": 2022, "month": 10 }, "geometry": { "type": "Point", "coordinates": [ 13.221283724599999, 52.480016621799997 ] } },
{ "type": "Feature", "properties": { "species": "Macrolepiota procera", "taxon_id": 63401, "latitude": 52.479272712399997, "longitude": 13.2174750181, "date": "2022-10-09", "year": 2022, "month": 10 }, "geometry": { "type": "Point", "coordinates": [ 13.2174750181, 52.479272712399997 ] } },
{ "type": "Feature", "properties": { "species": "Macrolepiota procera", "taxon_id": 63401, "latitude": 52.611657558200001, "longitude": 13.044637888700001, "date": "2022-10-08", "year": 2022, "month": 10 }, "geometry": { "type": "Point", "coordinates": [ 13.044637888700001, 52.611657558200001 ] } },
{ "type": "Feature", "properties": { "species": "Macrolepiota procera", "taxon_id": 63401, "latitude": 52.1355285645, "longitude": 13.386423111, "date": "2022-10-06", "year": 2022, "month": 10 }, "geometry": { "type": "Point", "coordinates": [ 13.386423111, 52.1355285645 ] } },
{ "type": "Feature", "properties": { "species": "Macrolepiota procera", "taxon_id": 63401, "latitude": 52.310468887200003, "longitude": 13.7746317604, "date": "2022-10-05", "year": 2022, "month": 10 }, "geometry": { "type": "Point", "coordinates": [ 13.7746317604, 52.310468887200003 ] } },
{ "type": "Feature", "properties": { "species": "Macrolepiota procera", "taxon_id": 63401, "latitude": 52.730330903099997, "longitude": 13.5689408412, "date": "2022-10-05", "year": 2022, "month": 10 }, "geometry": { "type": "Point", "coordinates": [ 13.5689408412, 52.730330903099997 ] } },
{ "type": "Feature", "properties": { "species": "Macrolepiota procera", "taxon_id": 63401, "latitude": 52.179379964900001, "longitude": 12.7418106527, "date": "2022-10-03", "year": 2022, "month": 10 }, "geometry": { "type": "Point", "coordinates": [ 12.7418106527, 52.179379964900001 ] } },
{ "type": "Feature", "properties": { "species": "Macrolepiota procera", "taxon_id": 63401, "latitude": 52.6640795657, "longitude": 13.540081406500001, "date": "2022-10-02", "year": 2022, "month": 10 }, "geometry": { "type": "Point", "coordinates": [ 13.540081406500001, 52.6640795657 ] } },
{ "type": "Feature", "properties": { "species": "Macrolepiota procera", "taxon_id": 63401, "latitude": 52.521188247700003, "longitude": 13.1421249602, "date": "2022-10-01", "year": 2022, "month": 10 }, "geometry": { "type": "Point", "coordinates": [ 13.1421249602, 52.521188247700003 ] } },
{ "type": "Feature", "properties": { "species": "Macrolepiota procera", "taxon_id": 63401, "latitude": 52.695831298800002, "longitude": 13.5541391373, "date": "2022-10-01", "year": 2022, "month": 10 }, "geometry": { "type": "Point", "coordinates": [ 13.5541391373, 52.695831298800002 ] } },
{ "type": "Feature", "properties": { "species": "Macrolepiota procera", "taxon_id": 63401, "latitude": 52.415535883799997, "longitude": 13.099866444, "date": "2022-09-30", "year": 2022, "month": 9 }, "geometry": { "type": "Point", "coordinates": [ 13.099866444, 52.415535883799997 ] } },
{ "type": "Feature", "properties": { "species": "Macrolepiota procera", "taxon_id": 63401, "latitude": 52.537083333299996, "longitude": 14.1606861667, "date": "2022-09-29", "year": 2022, "month": 9 }, "geometry": { "type": "Point", "coordinates": [ 14.1606861667, 52.537083333299996 ] } },
{ "type": "Feature", "properties": { "species": "Macrolepiota procera", "taxon_id": 63401, "latitude": 52.492038888899998, "longitude": 13.2281666667, "date": "2022-09-29", "year": 2022, "month": 9 }, "geometry": { "type": "Point", "coordinates": [ 13.2281666667, 52.492038888899998 ] } },
{ "type": "Feature", "properties": { "species": "Macrolepiota procera", "taxon_id": 63401, "latitude": 52.422028333299998, "longitude": 13.270263333300001, "date": "2022-09-28", "year": 2022, "month": 9 }, "geometry": { "type": "Point", "coordinates": [ 13.270263333300001, 52.422028333299998 ] } },
{ "type": "Feature", "properties": { "species": "Macrolepiota procera", "taxon_id": 63401, "latitude": 52.422163333299999, "longitude": 13.2699716667, "date": "2022-09-28", "year": 2022, "month": 9 }, "geometry": { "type": "Point", "coordinates": [ 13.2699716667, 52.422163333299999 ] } },
{ "type": "Feature", "properties": { "species": "Macrolepiota procera", "taxon_id": 63401, "latitude": 52.482655, "longitude": 13.4868866667, "date": "2022-09-28", "year": 2022, "month": 9 }, "geometry": { "type": "Point", "coordinates": [ 13.4868866667, 52.482655 ] } },
{ "type": "Feature", "properties": { "species": "Macrolepiota procera", "taxon_id": 63401, "latitude": 52.520585878200002, "longitude": 13.142723566100001, "date": "2022-09-27", "year": 2022, "month": 9 }, "geometry": { "type": "Point", "coordinates": [ 13.142723566100001, 52.520585878200002 ] } },
{ "type": "Feature", "properties": { "species": "Macrolepiota procera", "taxon_id": 63401, "latitude": 52.483452777799997, "longitude": 13.4206333333, "date": "2022-09-26", "year": 2022, "month": 9 }, "geometry": { "type": "Point", "coordinates": [ 13.4206333333, 52.483452777799997 ] } },
{ "type": "Feature", "properties": { "species": "Macrolepiota procera", "taxon_id": 63401, "latitude": 52.32339851, "longitude": 13.53037058, "date": "2022-09-25", "year": 2022, "month": 9 }, "geometry": { "type": "Point", "coordinates": [ 13.53037058, 52.32339851 ] } },
{ "type": "Feature", "properties": { "species": "Macrolepiota procera", "taxon_id": 63401, "latitude": 52.467785216899998, "longitude": 13.6069329176, "date": "2022-09-25", "year": 2022, "month": 9 }, "geometry": { "type": "Point", "coordinates": [ 13.6069329176, 52.467785216899998 ] } },
{ "type": "Feature", "properties": { "species": "Macrolepiota procera", "taxon_id": 63401, "latitude": 52.4677681597, "longitude": 13.6068884935, "date": "2022-09-25", "year": 2022, "month": 9 }, "geometry": { "type": "Point", "coordinates": [ 13.6068884935, 52.4677681597 ] } },
{ "type": "Feature", "properties": { "species": "Macrolepiota procera", "taxon_id": 63401, "latitude": 52.470210253300003, "longitude": 13.6198431765, "date": "2022-09-25", "year": 2022, "month": 9 }, "geometry": { "type": "Point", "coordinates": [ 13.6198431765, 52.470210253300003 ] } },
{ "type": "Feature", "properties": { "species": "Macrolepiota procera", "taxon_id": 63401, "latitude": 52.459368314000002, "longitude": 13.5884548078, "date": "2022-09-25", "year": 2022, "month": 9 }, "geometry": { "type": "Point", "coordinates": [ 13.5884548078, 52.459368314 ] } },
{ "type": "Feature", "properties": { "species": "Macrolepiota procera", "taxon_id": 63401, "latitude": 52.463275375800002, "longitude": 13.600505590499999, "date": "2022-09-25", "year": 2022, "month": 9 }, "geometry": { "type": "Point", "coordinates": [ 13.600505590499999, 52.463275375800002 ] } },
{ "type": "Feature", "properties": { "species": "Macrolepiota procera", "taxon_id": 63401, "latitude": 52.1035945, "longitude": 14.0653416667, "date": "2022-09-25", "year": 2022, "month": 9 }, "geometry": { "type": "Point", "coordinates": [ 14.0653416667, 52.1035945 ] } },
{ "type": "Feature", "properties": { "species": "Macrolepiota procera", "taxon_id": 63401, "latitude": 52.241846666699999, "longitude": 13.199503333299999, "date": "2022-09-25", "year": 2022, "month": 9 }, "geometry": { "type": "Point", "coordinates": [ 13.199503333299999, 52.241846666699999 ] } },
{ "type": "Feature", "properties": { "species": "Macrolepiota procera", "taxon_id": 63401, "latitude": 52.445226365800004, "longitude": 13.041499033599999, "date": "2022-09-23", "year": 2022, "month": 9 }, "geometry": { "type": "Point", "coordinates": [ 13.041499033599999, 52.445226365800004 ] } },
{ "type": "Feature", "properties": { "species": "Macrolepiota procera", "taxon_id": 63401, "latitude": 52.628741753299998, "longitude": 13.4636571288, "date": "2022-09-23", "year": 2022, "month": 9 }, "geometry": { "type": "Point", "coordinates": [ 13.4636571288, 52.628741753299998 ] } },
{ "type": "Feature", "properties": { "species": "Macrolepiota procera", "taxon_id": 63401, "latitude": 52.4207, "longitude": 13.268295, "date": "2022-09-21", "year": 2022, "month": 9 }, "geometry": { "type": "Point", "coordinates": [ 13.268295, 52.4207 ] } },
{ "type": "Feature", "properties": { "species": "Macrolepiota procera", "taxon_id": 63401, "latitude": 52.420721666699997, "longitude": 13.268245, "date": "2022-09-21", "year": 2022, "month": 9 }, "geometry": { "type": "Point", "coordinates": [ 13.268245, 52.420721666699997 ] } },
{ "type": "Feature", "properties": { "species": "Macrolepiota procera", "taxon_id": 63401, "latitude": 52.4208, "longitude": 13.2679916667, "date": "2022-09-21", "year": 2022, "month": 9 }, "geometry": { "type": "Point", "coordinates": [ 13.2679916667, 52.4208 ] } },
{ "type": "Feature", "properties": { "species": "Macrolepiota procera", "taxon_id": 63401, "latitude": 52.499386361600003, "longitude": 13.2227023691, "date": "2022-09-20", "year": 2022, "month": 9 }, "geometry": { "type": "Point", "coordinates": [ 13.2227023691, 52.499386361600003 ] } },
{ "type": "Feature", "properties": { "species": "Macrolepiota procera", "taxon_id": 63401, "latitude": 52.498955496599997, "longitude": 13.2246692045, "date": "2022-09-20", "year": 2022, "month": 9 }, "geometry": { "type": "Point", "coordinates": [ 13.2246692045, 52.498955496599997 ] } },
{ "type": "Feature", "properties": { "species": "Macrolepiota procera", "taxon_id": 63401, "latitude": 52.413688333300001, "longitude": 13.2717533333, "date": "2022-09-17", "year": 2022, "month": 9 }, "geometry": { "type": "Point", "coordinates": [ 13.2717533333, 52.413688333300001 ] } },
{ "type": "Feature", "properties": { "species": "Macrolepiota procera", "taxon_id": 63401, "latitude": 52.414128333299999, "longitude": 13.272283333300001, "date": "2022-09-17", "year": 2022, "month": 9 }, "geometry": { "type": "Point", "coordinates": [ 13.272283333300001, 52.414128333299999 ] } },
{ "type": "Feature", "properties": { "species": "Macrolepiota procera", "taxon_id": 63401, "latitude": 52.718601226799997, "longitude": 12.7699146271, "date": "2022-09-17", "year": 2022, "month": 9 }, "geometry": { "type": "Point", "coordinates": [ 12.7699146271, 52.718601226799997 ] } },
{ "type": "Feature", "properties": { "species": "Macrolepiota procera", "taxon_id": 63401, "latitude": 52.33314196, "longitude": 13.61622206, "date": "2022-09-11", "year": 2022, "month": 9 }, "geometry": { "type": "Point", "coordinates": [ 13.61622206, 52.33314196 ] } },
{ "type": "Feature", "properties": { "species": "Macrolepiota procera", "taxon_id": 63401, "latitude": 52.464547794200001, "longitude": 13.058212213199999, "date": "2022-09-11", "year": 2022, "month": 9 }, "geometry": { "type": "Point", "coordinates": [ 13.058212213199999, 52.464547794200001 ] } },
{ "type": "Feature", "properties": { "species": "Macrolepiota procera", "taxon_id": 63401, "latitude": 52.554138183600003, "longitude": 13.8155412674, "date": "2022-09-10", "year": 2022, "month": 9 }, "geometry": { "type": "Point", "coordinates": [ 13.8155412674, 52.554138183600003 ] } },
{ "type": "Feature", "properties": { "species": "Macrolepiota procera", "taxon_id": 63401, "latitude": 52.48576299, "longitude": 13.243510479899999, "date": "2021-10-30", "year": 2021, "month": 10 }, "geometry": { "type": "Point", "coordinates": [ 13.243510479899999, 52.48576299 ] } },
{ "type": "Feature", "properties": { "species": "Macrolepiota procera", "taxon_id": 63401, "latitude": 52.48611881, "longitude": 13.2427665201, "date": "2021-10-30", "year": 2021, "month": 10 }, "geometry": { "type": "Point", "coordinates": [ 13.2427665201, 52.48611881 ] } },
{ "type": "Feature", "properties": { "species": "Macrolepiota procera", "taxon_id": 63401, "latitude": 52.486921666699999, "longitude": 13.24375, "date": "2021-10-30", "year": 2021, "month": 10 }, "geometry": { "type": "Point", "coordinates": [ 13.24375, 52.486921666699999 ] } },
{ "type": "Feature", "properties": { "species": "Macrolepiota procera", "taxon_id": 63401, "latitude": 52.486183333299998, "longitude": 13.2428166667, "date": "2021-10-30", "year": 2021, "month": 10 }, "geometry": { "type": "Point", "coordinates": [ 13.2428166667, 52.486183333299998 ] } },
{ "type": "Feature", "properties": { "species": "Macrolepiota procera", "taxon_id": 63401, "latitude": 52.48544486, "longitude": 13.25371774, "date": "2021-10-30", "year": 2021, "month": 10 }, "geometry": { "type": "Point", "coordinates": [ 13.25371774, 52.48544486 ] } },
{ "type": "Feature", "properties": { "species": "Macrolepiota procera", "taxon_id": 63401, "latitude": 52.485611666700002, "longitude": 13.2538033333, "date": "2021-10-30", "year": 2021, "month": 10 }, "geometry": { "type": "Point", "coordinates": [ 13.2538033333, 52.485611666700002 ] } },
{ "type": "Feature", "properties": { "species": "Macrolepiota procera", "taxon_id": 63401, "latitude": 52.41817412, "longitude": 13.9415000687, "date": "2021-10-30", "year": 2021, "month": 10 }, "geometry": { "type": "Point", "coordinates": [ 13.9415000687, 52.41817412 ] } },
{ "type": "Feature", "properties": { "species": "Macrolepiota procera", "taxon_id": 63401, "latitude": 52.434519395700001, "longitude": 13.1311109662, "date": "2021-10-23", "year": 2021, "month": 10 }, "geometry": { "type": "Point", "coordinates": [ 13.1311109662, 52.434519395700001 ] } },
{ "type": "Feature", "properties": { "species": "Macrolepiota procera", "taxon_id": 63401, "latitude": 52.520606994399998, "longitude": 13.141525268300001, "date": "2021-10-15", "year": 2021, "month": 10 }, "geometry": { "type": "Point", "coordinates": [ 13.141525268300001, 52.520606994399998 ] } },
{ "type": "Feature", "properties": { "species": "Macrolepiota procera", "taxon_id": 63401, "latitude": 52.626603333299997, "longitude": 13.6310583333, "date": "2021-10-11", "year": 2021, "month": 10 }, "geometry": { "type": "Point", "coordinates": [ 13.6310583333, 52.626603333299997 ] } },
{ "type": "Feature", "properties": { "species": "Macrolepiota procera", "taxon_id": 63401, "latitude": 52.485722222200003, "longitude": 13.2533888889, "date": "2021-10-04", "year": 2021, "month": 10 }, "geometry": { "type": "Point", "coordinates": [ 13.2533888889, 52.485722222200003 ] } },
{ "type": "Feature", "properties": { "species": "Macrolepiota procera", "taxon_id": 63401, "latitude": 52.4279166667, "longitude": 13.261836666700001, "date": "2021-10-04", "year": 2021, "month": 10 }, "geometry": { "type": "Point", "coordinates": [ 13.261836666700001, 52.4279166667 ] } },
{ "type": "Feature", "properties": { "species": "Macrolepiota procera", "taxon_id": 63401, "latitude": 52.427516666700001, "longitude": 13.264795, "date": "2021-10-04", "year": 2021, "month": 10 }, "geometry": { "type": "Point", "coordinates": [ 13.264795, 52.427516666700001 ] } },
{ "type": "Feature", "properties": { "species": "Macrolepiota procera", "taxon_id": 63401, "latitude": 52.548425799699999, "longitude": 14.092893399699999, "date": "2021-10-01", "year": 2021, "month": 10 }, "geometry": { "type": "Point", "coordinates": [ 14.092893399699999, 52.548425799699999 ] } },
{ "type": "Feature", "properties": { "species": "Macrolepiota procera", "taxon_id": 63401, "latitude": 52.427008333300002, "longitude": 13.264863333299999, "date": "2021-09-27", "year": 2021, "month": 9 }, "geometry": { "type": "Point", "coordinates": [ 13.264863333299999, 52.427008333300002 ] } },
{ "type": "Feature", "properties": { "species": "Macrolepiota procera", "taxon_id": 63401, "latitude": 52.904920222299999, "longitude": 13.7107899193, "date": "2021-09-23", "year": 2021, "month": 9 }, "geometry": { "type": "Point", "coordinates": [ 13.7107899193, 52.904920222299999 ] } },
{ "type": "Feature", "properties": { "species": "Macrolepiota procera", "taxon_id": 63401, "latitude": 52.823408965799999, "longitude": 13.7909077224, "date": "2021-09-19", "year": 2021, "month": 9 }, "geometry": { "type": "Point", "coordinates": [ 13.7909077224, 52.823408965799999 ] } },
{ "type": "Feature", "properties": { "species": "Macrolepiota procera", "taxon_id": 63401, "latitude": 52.909885332999998, "longitude": 13.7159809011, "date": "2021-09-16", "year": 2021, "month": 9 }, "geometry": { "type": "Point", "coordinates": [ 13.7159809011, 52.909885333 ] } },
{ "type": "Feature", "properties": { "species": "Macrolepiota procera", "taxon_id": 63401, "latitude": 52.570580555600003, "longitude": 13.039811111100001, "date": "2021-09-15", "year": 2021, "month": 9 }, "geometry": { "type": "Point", "coordinates": [ 13.039811111100001, 52.570580555600003 ] } },
{ "type": "Feature", "properties": { "species": "Macrolepiota procera", "taxon_id": 63401, "latitude": 52.44746627, "longitude": 13.6898338795, "date": "2021-09-13", "year": 2021, "month": 9 }, "geometry": { "type": "Point", "coordinates": [ 13.6898338795, 52.44746627 ] } },
{ "type": "Feature", "properties": { "species": "Macrolepiota procera", "taxon_id": 63401, "latitude": 52.542403847400003, "longitude": 13.768488126899999, "date": "2021-09-09", "year": 2021, "month": 9 }, "geometry": { "type": "Point", "coordinates": [ 13.768488126899999, 52.542403847400003 ] } },
{ "type": "Feature", "properties": { "species": "Macrolepiota procera", "taxon_id": 63401, "latitude": 52.570988888899997, "longitude": 13.0385833333, "date": "2021-09-06", "year": 2021, "month": 9 }, "geometry": { "type": "Point", "coordinates": [ 13.0385833333, 52.570988888899997 ] } },
{ "type": "Feature", "properties": { "species": "Macrolepiota procera", "taxon_id": 63401, "latitude": 52.571111111100002, "longitude": 13.2652777778, "date": "2021-09-04", "year": 2021, "month": 9 }, "geometry": { "type": "Point", "coordinates": [ 13.2652777778, 52.571111111100002 ] } },
{ "type": "Feature", "properties": { "species": "Macrolepiota procera", "taxon_id": 63401, "latitude": 52.570186666700003, "longitude": 13.266828333299999, "date": "2021-09-04", "year": 2021, "month": 9 }, "geometry": { "type": "Point", "coordinates": [ 13.266828333299999, 52.570186666700003 ] } },
{ "type": "Feature", "properties": { "species": "Macrolepiota procera", "taxon_id": 63401, "latitude": 52.56208333, "longitude": 14.12308617, "date": "2021-09-04", "year": 2021, "month": 9 }, "geometry": { "type": "Point", "coordinates": [ 14.12308617, 52.56208333 ] } },
{ "type": "Feature", "properties": { "species": "Macrolepiota procera", "taxon_id": 63401, "latitude": 52.554598324399997, "longitude": 13.254580367100001, "date": "2021-09-03", "year": 2021, "month": 9 }, "geometry": { "type": "Point", "coordinates": [ 13.254580367100001, 52.554598324399997 ] } },
{ "type": "Feature", "properties": { "species": "Macrolepiota procera", "taxon_id": 63401, "latitude": 52.918329399699999, "longitude": 13.6470412997, "date": "2021-08-18", "year": 2021, "month": 8 }, "geometry": { "type": "Point", "coordinates": [ 13.6470412997, 52.918329399699999 ] } },
{ "type": "Feature", "properties": { "species": "Macrolepiota procera", "taxon_id": 63401, "latitude": 52.486111111100001, "longitude": 13.636388888899999, "date": "2020-11-07", "year": 2020, "month": 11 }, "geometry": { "type": "Point", "coordinates": [ 13.636388888899999, 52.486111111100001 ] } },
{ "type": "Feature", "properties": { "species": "Macrolepiota procera", "taxon_id": 63401, "latitude": 52.4764716667, "longitude": 13.268095, "date": "2020-10-30", "year": 2020, "month": 10 }, "geometry": { "type": "Point", "coordinates": [ 13.268095, 52.4764716667 ] } },
{ "type": "Feature", "properties": { "species": "Macrolepiota procera", "taxon_id": 63401, "latitude": 52.758917937500001, "longitude": 13.5677132383, "date": "2020-10-30", "year": 2020, "month": 10 }, "geometry": { "type": "Point", "coordinates": [ 13.5677132383, 52.758917937500001 ] } },
{ "type": "Feature", "properties": { "species": "Macrolepiota procera", "taxon_id": 63401, "latitude": 52.558232595900002, "longitude": 13.3444279508, "date": "2020-10-25", "year": 2020, "month": 10 }, "geometry": { "type": "Point", "coordinates": [ 13.3444279508, 52.558232595900002 ] } },
{ "type": "Feature", "properties": { "species": "Macrolepiota procera", "taxon_id": 63401, "latitude": 52.4086396, "longitude": 13.5824636, "date": "2020-10-25", "year": 2020, "month": 10 }, "geometry": { "type": "Point", "coordinates": [ 13.5824636, 52.4086396 ] } },
{ "type": "Feature", "properties": { "species": "Macrolepiota procera", "taxon_id": 63401, "latitude": 52.41092, "longitude": 13.6125616667, "date": "2020-10-25", "year": 2020, "month": 10 }, "geometry": { "type": "Point", "coordinates": [ 13.6125616667, 52.41092 ] } },
{ "type": "Feature", "properties": { "species": "Macrolepiota procera", "taxon_id": 63401, "latitude": 52.569973333299998, "longitude": 13.26285, "date": "2020-10-24", "year": 2020, "month": 10 }, "geometry": { "type": "Point", "coordinates": [ 13.26285, 52.569973333299998 ] } },
{ "type": "Feature", "properties": { "species": "Macrolepiota procera", "taxon_id": 63401, "latitude": 52.829997158300003, "longitude": 13.1486641917, "date": "2020-10-24", "year": 2020, "month": 10 }, "geometry": { "type": "Point", "coordinates": [ 13.1486641917, 52.829997158300003 ] } },
{ "type": "Feature", "properties": { "species": "Macrolepiota procera", "taxon_id": 63401, "latitude": 52.4573889722, "longitude": 13.690630972199999, "date": "2020-10-24", "year": 2020, "month": 10 }, "geometry": { "type": "Point", "coordinates": [ 13.690630972199999, 52.4573889722 ] } },
{ "type": "Feature", "properties": { "species": "Macrolepiota procera", "taxon_id": 63401, "latitude": 52.456691972199998, "longitude": 13.689403, "date": "2020-10-24", "year": 2020, "month": 10 }, "geometry": { "type": "Point", "coordinates": [ 13.689403, 52.456691972199998 ] } },
{ "type": "Feature", "properties": { "species": "Macrolepiota procera", "taxon_id": 63401, "latitude": 52.292042867299998, "longitude": 13.4388451651, "date": "2020-10-24", "year": 2020, "month": 10 }, "geometry": { "type": "Point", "coordinates": [ 13.4388451651, 52.292042867299998 ] } },
{ "type": "Feature", "properties": { "species": "Macrolepiota procera", "taxon_id": 63401, "latitude": 52.228398347199999, "longitude": 13.134243877699999, "date": "2020-10-20", "year": 2020, "month": 10 }, "geometry": { "type": "Point", "coordinates": [ 13.134243877699999, 52.228398347199999 ] } },
{ "type": "Feature", "properties": { "species": "Macrolepiota procera", "taxon_id": 63401, "latitude": 52.257328451600003, "longitude": 13.197290908199999, "date": "2020-10-20", "year": 2020, "month": 10 }, "geometry": { "type": "Point", "coordinates": [ 13.197290908199999, 52.257328451600003 ] } },
{ "type": "Feature", "properties": { "species": "Macrolepiota procera", "taxon_id": 63401, "latitude": 52.639789776800001, "longitude": 13.464782642299999, "date": "2020-10-17", "year": 2020, "month": 10 }, "geometry": { "type": "Point", "coordinates": [ 13.464782642299999, 52.639789776800001 ] } },
{ "type": "Feature", "properties": { "species": "Macrolepiota procera", "taxon_id": 63401, "latitude": 52.565506666700003, "longitude": 13.27779, "date": "2020-10-17", "year": 2020, "month": 10 }, "geometry": { "type": "Point", "coordinates": [ 13.27779, 52.565506666700003 ] } },
{ "type": "Feature", "properties": { "species": "Macrolepiota procera", "taxon_id": 63401, "latitude": 52.416571666700001, "longitude": 13.0778111667, "date": "2020-10-17", "year": 2020, "month": 10 }, "geometry": { "type": "Point", "coordinates": [ 13.0778111667, 52.416571666700001 ] } },
{ "type": "Feature", "properties": { "species": "Macrolepiota procera", "taxon_id": 63401, "latitude": 52.491578333299998, "longitude": 13.193245, "date": "2020-10-16", "year": 2020, "month": 10 }, "geometry": { "type": "Point", "coordinates": [ 13.193245, 52.491578333299998 ] } },
{ "type": "Feature", "properties": { "species": "Macrolepiota procera", "taxon_id": 63401, "latitude": 52.481991666699997, "longitude": 14.0063666667, "date": "2020-10-11", "year": 2020, "month": 10 }, "geometry": { "type": "Point", "coordinates": [ 14.0063666667, 52.481991666699997 ] } },
{ "type": "Feature", "properties": { "species": "Macrolepiota procera", "taxon_id": 63401, "latitude": 52.41036167, "longitude": 13.584375, "date": "2020-10-11", "year": 2020, "month": 10 }, "geometry": { "type": "Point", "coordinates": [ 13.584375, 52.41036167 ] } },
{ "type": "Feature", "properties": { "species": "Macrolepiota procera", "taxon_id": 63401, "latitude": 52.479166666700003, "longitude": 13.486944444400001, "date": "2020-10-10", "year": 2020, "month": 10 }, "geometry": { "type": "Point", "coordinates": [ 13.486944444400001, 52.479166666700003 ] } },
{ "type": "Feature", "properties": { "species": "Macrolepiota procera", "taxon_id": 63401, "latitude": 52.56785759, "longitude": 13.27474746, "date": "2020-10-10", "year": 2020, "month": 10 }, "geometry": { "type": "Point", "coordinates": [ 13.27474746, 52.56785759 ] } },
{ "type": "Feature", "properties": { "species": "Macrolepiota procera", "taxon_id": 63401, "latitude": 52.583818095200002, "longitude": 13.2536709651, "date": "2020-10-10", "year": 2020, "month": 10 }, "geometry": { "type": "Point", "coordinates": [ 13.2536709651, 52.583818095200002 ] } },
{ "type": "Feature", "properties": { "species": "Macrolepiota procera", "taxon_id": 63401, "latitude": 52.959279, "longitude": 13.7991359, "date": "2020-10-05", "year": 2020, "month": 10 }, "geometry": { "type": "Point", "coordinates": [ 13.7991359, 52.959279 ] } },
{ "type": "Feature", "properties": { "species": "Macrolepiota procera", "taxon_id": 63401, "latitude": 52.48282, "longitude": 13.25581167, "date": "2020-10-04", "year": 2020, "month": 10 }, "geometry": { "type": "Point", "coordinates": [ 13.25581167, 52.48282 ] } },
{ "type": "Feature", "properties": { "species": "Macrolepiota procera", "taxon_id": 63401, "latitude": 52.47723733, "longitude": 13.217289, "date": "2020-10-02", "year": 2020, "month": 10 }, "geometry": { "type": "Point", "coordinates": [ 13.217289, 52.47723733 ] } },
{ "type": "Feature", "properties": { "species": "Macrolepiota procera", "taxon_id": 63401, "latitude": 52.516619650599999, "longitude": 13.9201131843, "date": "2020-09-29", "year": 2020, "month": 9 }, "geometry": { "type": "Point", "coordinates": [ 13.9201131843, 52.516619650599999 ] } },
{ "type": "Feature", "properties": { "species": "Macrolepiota procera", "taxon_id": 63401, "latitude": 52.51845833, "longitude": 13.00445833, "date": "2020-09-20", "year": 2020, "month": 9 }, "geometry": { "type": "Point", "coordinates": [ 13.00445833, 52.51845833 ] } },
{ "type": "Feature", "properties": { "species": "Macrolepiota procera", "taxon_id": 63401, "latitude": 52.992752075, "longitude": 13.322114944400001, "date": "2020-09-13", "year": 2020, "month": 9 }, "geometry": { "type": "Point", "coordinates": [ 13.322114944400001, 52.992752075 ] } },
{ "type": "Feature", "properties": { "species": "Macrolepiota procera", "taxon_id": 63401, "latitude": 52.02263883, "longitude": 13.88797833, "date": "2020-09-06", "year": 2020, "month": 9 }, "geometry": { "type": "Point", "coordinates": [ 13.88797833, 52.02263883 ] } },
{ "type": "Feature", "properties": { "species": "Macrolepiota procera", "taxon_id": 63401, "latitude": 52.42626667, "longitude": 13.1404305, "date": "2020-07-19", "year": 2020, "month": 7 }, "geometry": { "type": "Point", "coordinates": [ 13.1404305, 52.42626667 ] } }
]
}
